[{"OBJECT_NAME":"STPSAT-5","OBJECT_ID":"2018-099E","EPOCH":"2026-03-09T17:03:28.111392","MEAN_MOTION":15.12747444,"ECCENTRICITY":0.00022983,"INCLINATION":97.4221,"RA_OF_ASC_NODE":121.2038,"ARG_OF_PERICENTER":348.2431,"MEAN_ANOMALY":11.8746,"EPHEMERIS_TYPE":0,"CLASSIFICATION_TYPE":"U","NORAD_CAT_ID":43762,"ELEMENT_SET_NO":999,"REV_AT_EPOCH":39782,"BSTAR":0.00030771004,"MEAN_MOTION_DOT":5.331e-5,"MEAN_MOTION_DDOT":0},{"OBJECT_NAME":"POPSAT-HIP-1","OBJECT_ID":"2014-033U","EPOCH":"2026-03-09T23:26:47.463936","MEAN_MOTION":15.1379217,"ECCENTRICITY":0.00074107,"INCLINATION":98.1028,"RA_OF_ASC_NODE":73.4567,"ARG_OF_PERICENTER":158.1927,"MEAN_ANOMALY":201.962,"EPHEMERIS_TYPE":0,"CLASSIFICATION_TYPE":"U","NORAD_CAT_ID":40028,"ELEMENT_SET_NO":999,"REV_AT_EPOCH":63778,"BSTAR":0.00046333918,"MEAN_MOTION_DOT":8.298e-5,"MEAN_MOTION_DDOT":0}]
